H1 CPF 01  gfz 2021 01 07 13  5072 terrasarx 
H2 0702601  6201 31698    2021 01 07 12 59 42 2021 01 12 00 00 42   120 1 1  0 0 0
H9
10 0 59223  39582.000000  0    -497922.274   4399832.009   5267483.831
10 0 59223  39702.000000  0    -202084.693   3704592.036   5794271.724
10 0 59223  39822.000000  0      84502.877   2939576.656   6219177.939
10 0 59223  39942.000000  0     355735.636   2118375.584   6534770.513
10 0 59223  40062.000000  0     606026.942   1255649.282   6735535.670
10 0 59223  40182.000000  0     830420.827    366863.988   6817968.280
10 0 59223  40302.000000  0    1024688.336   -531985.092   6780628.460
10 0 59223  40422.000000  0    1185406.450  -1424660.706   6624166.417
10 0 59223  40542.000000  0    1310018.486  -2294976.456   6351312.120
10 0 59223  40662.000000  0    1396874.894  -3127090.571   5966831.291
10 0 59223  40782.000000  0    1445253.426  -3905796.621   5477446.582
10 0 59223  40902.000000  0    1455358.809  -4616803.895   4891724.585
10 0 59223  41022.000000  0    1428302.895  -5247004.024   4219932.644
10 0 59223  41142.000000  0    1366064.669  -5784721.854   3473864.699
10 0 59223  41262.000000  0    1271430.698  -6219941.689   2666635.086
10 0 59223  41382.000000  0    1147916.915  -6544502.295   1812447.362
10 0 59223  41502.000000  0     999673.466  -6752259.279    926341.987
10 0 59223  41622.000000  0     831375.656  -6839209.112     23925.683
10 0 59223  41742.000000  0     648101.989  -6803571.298   -878913.015
10 0 59223  41862.000000  0     455203.007  -6645822.376  -1766294.283
10 0 59223  41982.000000  0     258166.470  -6368683.858  -2622633.968
10 0 59223  42102.000000  0      62481.125  -5977067.019  -3432922.571
10 0 59223  42222.000000  0    -126497.912  -5477975.238  -4182991.732
10 0 59223  42342.000000  0    -303678.773  -4880365.358  -4859761.627
10 0 59223  42462.000000  0    -464353.986  -4194974.275  -5451463.784
10 0 59223  42582.000000  0    -604310.658  -3434115.381  -5947837.947
10 0 59223  42702.000000  0    -719927.079  -2611449.191  -6340299.820
10 0 59223  42822.000000  0    -808254.473  -1741733.357  -6622078.235
10 0 59223  42942.000000  0    -867082.524   -840557.498  -6788320.741
10 0 59223  43062.000000  0    -894987.872     75933.212  -6836168.812
10 0 59223  43182.000000  0    -891364.269    991321.921  -6764800.589
10 0 59223  43302.000000  0    -856434.696   1889206.387  -6575443.133
10 0 59223  43422.000000  0    -791245.429   2753485.366  -6271353.583
10 0 59223  43542.000000  0    -697641.474   3568641.809  -5857770.580
10 0 59223  43662.000000  0    -578224.004   4320019.807  -5341833.470
10 0 59223  43782.000000  0    -436290.016   4994088.925  -4732470.126
10 0 59223  43902.000000  0    -275755.924   5578693.566  -4040253.850
10 0 59223  44022.000000  0    -101065.675   6063281.027  -3277229.135
10 0 59223  44142.000000  0      82915.024   6439102.752  -2456709.240
10 0 59223  44262.000000  0     271016.072   6699384.974  -1593047.995
10 0 59223  44382.000000  0     457889.368   6839463.614   -701388.702
10 0 59223  44502.000000  0     638141.540   6856878.760    202605.139
10 0 59223  44622.000000  0     806469.695   6751425.738   1103031.839
10 0 59223  44742.000000  0     957796.048   6525160.119   1984039.783
10 0 59223  44862.000000  0    1087396.793   6182357.258   2830114.799
10 0 59223  44982.000000  0    1191023.569   5729429.021   3626360.635
10 0 59223  45102.000000  0    1265014.672   5174797.018   4358767.603
10 0 59223  45222.000000  0    1306394.226   4528728.332   5014464.130
10 0 59223  45342.000000  0    1312951.823   3803131.859   5581944.363
10 0 59223  45462.000000  0    1283306.916   3011329.402   6051263.937
10 0 59223  45582.000000  0    1216953.878   2167804.531   6414209.932
10 0 59223  45702.000000  0    1114287.095   1287932.001   6664439.080
10 0 59223  45822.000000  0     976606.301    387693.713   6797582.217
10 0 59223  45942.000000  0     806101.852   -516611.252   6811314.837
10 0 59223  46062.000000  0     605819.955  -1408660.701   6705396.720
10 0 59223  46182.000000  0     379608.146  -2272403.960   6481676.180
10 0 59223  46302.000000  0     132041.734  -3092351.017   6144060.278
10 0 59223  46422.000000  0    -131666.924  -3853852.109   5698448.671
10 0 59223  46542.000000  0    -405774.277  -4543360.004   5152634.929
10 0 59223  46662.000000  0    -684125.359  -5148675.085   4516178.712
10 0 59223  46782.000000  0    -960287.022  -5659171.199   3800245.586
10 0 59223  46902.000000  0   -1227691.009  -6065992.446   3017413.096
10 0 59223  47022.000000  0   -1479783.044  -6362215.849   2181450.096
10 0 59223  47142.000000  0   -1710174.980  -6542978.810   1307073.155
10 0 59223  47262.000000  0   -1912797.320  -6605566.016    409681.352
10 0 59223  47382.000000  0   -2082045.261  -6549452.246   -494923.249
10 0 59223  47502.000000  0   -2212916.057  -6376301.249  -1390822.661
10 0 59223  47622.000000  0   -2301134.515  -6089920.754  -2262271.413
10 0 59223  47742.000000  0   -2343263.571  -5696174.924  -3093980.622
10 0 59223  47862.000000  0   -2336796.755  -5202855.871  -3871391.482
10 0 59223  47982.000000  0   -2280230.151  -4619518.290  -4580931.079
10 0 59223  48102.000000  0   -2173112.798  -3957283.501  -5210245.655
10 0 59223  48222.000000  0   -2016075.177  -3228618.436  -5748408.735
10 0 59223  48342.000000  0   -1810835.452  -2447094.296  -6186102.115
10 0 59223  48462.000000  0   -1560182.836  -1627129.132  -6515766.808
10 0 59223  48582.000000  0   -1267939.378   -783720.784  -6731721.681
10 0 59223  48702.000000  0    -938901.963     67824.806  -6830250.806
10 0 59223  48822.000000  0    -578764.276    912165.675  -6809659.891
10 0 59223  48942.000000  0    -194019.786   1734193.097  -6670302.037
10 0 59223  49062.000000  0     208151.369   2519294.723  -6414572.440
10 0 59223  49182.000000  0     620012.415   3253609.594  -6046873.825
10 0 59223  49302.000000  0    1033415.449   3924271.198  -5573548.329
10 0 59223  49422.000000  0    1439957.998   4519632.825  -5002778.001
10 0 59223  49542.000000  0    1831149.914   5029474.401  -4344455.569
10 0 59223  49662.000000  0    2198587.570   5445185.942  -3610022.862
10 0 59223  49782.000000  0    2534131.151   5759922.085  -2812280.212
10 0 59223  49902.000000  0    2830082.172   5968725.941  -1965169.234
10 0 59223  50022.000000  0    3079357.028   6068617.922  -1083530.723
10 0 59223  50142.000000  0    3275651.300   6058645.993   -182841.720
10 0 59223  50262.000000  0    3413590.189   5939894.874    721062.112
10 0 59223  50382.000000  0    3488861.833   5715454.173   1612271.959
10 0 59223  50502.000000  0    3498330.405   5390347.116   2475093.791
10 0 59223  50622.000000  0    3440124.703   4971420.763   3294333.550
10 0 59223  50742.000000  0    3313701.214   4467198.162   4055572.107
10 0 59223  50862.000000  0    3119880.244   3887700.251   4745423.353
10 0 59223  50982.000000  0    2860850.335   3244239.322   5351773.528
10 0 59223  51102.000000  0    2540144.952   2549189.849   5863990.378
10 0 59223  51222.000000  0    2162594.771   1815745.526   6273104.683
10 0 59223  51342.000000  0    1734253.108   1057664.089   6571962.842
10 0 59223  51462.000000  0    1262295.842    289006.232   6755344.880
10 0 59223  51582.000000  0     754899.535   -476124.271   6820049.541
10 0 59223  51702.000000  0     221099.457  -1223838.863   6764948.239
10 0 59223  51822.000000  0    -329371.569  -1940716.442   6591003.389
10 0 59223  51942.000000  0    -886260.609  -2614044.197   6301252.057
10 0 59223  52062.000000  0   -1438984.258  -3232043.300   5900754.599
10 0 59223  52182.000000  0   -1976826.891  -3784075.803   5396511.700
10 0 59223  52302.000000  0   -2489148.343  -4260831.744   4797350.334
10 0 59223  52422.000000  0   -2965597.151  -4654492.841   4113776.090
10 0 59223  52542.000000  0   -3396322.942  -4958867.578   3357792.451
10 0 59223  52662.000000  0   -3772181.859  -5169494.526   2542690.598
10 0 59223  52782.000000  0   -4084931.343  -5283712.125   1682814.895
10 0 59223  52902.000000  0   -4327411.106  -5300693.022    793306.486
10 0 59223  53022.000000  0   -4493704.466  -5221440.947   -110169.791
10 0 59223  53142.000000  0   -4579276.224  -5048750.788  -1011709.399
10 0 59223  53262.000000  0   -4581082.856  -4787132.039  -1895457.842
10 0 59223  53382.000000  0   -4497651.518  -4442696.804  -2745898.333
10 0 59223  53502.000000  0   -4329126.527  -4023016.412  -3548129.964
10 0 59223  53622.000000  0   -4077282.911  -3536951.801  -4288130.769
10 0 59223  53742.000000  0   -3745507.718  -2994462.258  -4953001.322
10 0 59223  53862.000000  0   -3338749.752  -2406396.701  -5531184.648
10 0 59223  53982.000000  0   -2863439.630  -1784273.395  -6012658.578
10 0 59223  54102.000000  0   -2327382.931  -1140052.778  -6389099.570
10 0 59223  54222.000000  0   -1739627.362   -485907.570  -6654015.597
10 0 59223  54342.000000  0   -1110307.877    166004.651  -6802845.936
10 0 59223  54462.000000  0    -450474.082    803761.909  -6833030.238
10 0 59223  54582.000000  0     228099.863   1415890.358  -6744048.033
10 0 59223  54702.000000  0     913119.150   1991564.848  -6537427.150
10 0 59223  54822.000000  0    1591986.435   2520796.916  -6216722.455
10 0 59223  54942.000000  0    2252028.958   2994606.412  -5787460.896
10 0 59223  55062.000000  0    2880731.721   3405174.154  -5257055.160
10 0 59223  55182.000000  0    3465972.433   3745972.760  -4634686.923
10 0 59223  55302.000000  0    3996256.339   4011875.521  -3931159.669
10 0 59223  55422.000000  0    4460945.691   4199239.117  -3158720.725
10 0 59223  55542.000000  0    4850478.473   4305957.920  -2330854.156
10 0 59223  55662.000000  0    5156570.144   4331487.994  -1462048.516
10 0 59223  55782.000000  0    5372394.980   4276840.244   -567542.529
10 0 59223  55902.000000  0    5492740.064   4144542.022    336946.286
10 0 59223  56022.000000  0    5514129.443   3938568.595   1235503.798
99
